ONEWEB-0620             
1 55161U 23004X   23059.58334491 -.01206416  00000+0 -41796+0 0  9990
2 55161  86.9123 265.2440 0011431  59.9262 272.8981 14.39086395  1304
ONEWEB-0620             
1 55161U 23004X   23059.75001157 -.01235460  00000+0 -43230+0 0  9995
2 55161  86.9146 265.1831 0011632  58.7444  56.8473 14.38669342  7449
ONEWEB-0620             
1 55161U 23004X   23059.91667824 -.01154917  00000+0 -40607+0 0  9994
2 55161  86.9169 265.1227 0011523  59.1923 198.9242 14.38201308  1304
ONEWEB-0620             
1 55161U 23004X   23060.91667824 -.01164507  00000+0 -43104+0 0  9997
2 55161  86.9303 264.7638 0011276  55.4446 332.3526 14.35641777  1303
ONEWEB-0620             
1 55161U 23004X   23060.91667824 -.01164507  00000+0 -43104+0 0  9997
2 55161  86.9303 264.7638 0011276  55.4446 332.3526 14.35641777  7613
ONEWEB-0620             
1 55161U 23004X   23061.83334491 -.01213748  00000+0 -47192+0 0  9993
2 55161  86.9430 264.4376 0011231  53.0281  25.4927 14.33282980  1302
ONEWEB-0620             
1 55161U 23004X   23062.58334491 -.01232241  00000+0 -49782+0 0  9992
2 55161  86.9531 264.1736 0010952  52.0860 291.2419 14.31377292  1300
ONEWEB-0620             
1 55161U 23004X   23062.58334491 -.01232241  00000+0 -49782+0 0  9992
2 55161  86.9531 264.1736 0010952  52.0860 291.2419 14.31377292  7856
ONEWEB-0620             
1 55161U 23004X   23062.91667824 -.01174806  00000+0 -48146+0 0  9993
2 55161  86.9577 264.0554 0011013  51.8033 207.5704 14.30479423  1300
